{"type": "FeatureCollection", "features": [ {"type": "Feature", "properties": {"norad_id": 66838, "name": "STARLINK-35886", "group": "last-30-days", "lat": 2.7585892802371643, "lon": 178.3984201250603, "alt_km": 411.3055584999456, "timestamp": "2025-12-20T09:36:00.353662+00:00", "meta": {"OBJECT_NAME": "STARLINK-35886", "OBJECT_ID": "2025-280T", "EPOCH": "2025-12-20T04:00:00.999072", "MEAN_MOTION": 15.52643714, "ECCENTRICITY": 0.0002855, "INCLINATION": 69.9996, "RA_OF_ASC_NODE": 178.0317, "ARG_OF_PERICENTER": 276.6324, "MEAN_ANOMALY": 222.6396, "EPHEMERIS_TYPE": 0, "CLASSIFICATION_TYPE": "U", "NORAD_CAT_ID": 66838, "ELEMENT_SET_NO": 999, "REV_AT_EPOCH": 409, "BSTAR": -0.0033538, "MEAN_MOTION_DOT": -0.00202232, "MEAN_MOTION_DDOT": 0}, "tle": {"line1": "1 66838U 25280T   25354.16667823 -.00202232  00000+0 -33538-2 0  9992", "line2": "2 66838  69.9996 178.0317 0002855 276.6324 222.6396 15.52643714  4099"}}, "geometry": {"type": "Point", "coordinates": [178.3984201250603, 2.7585892802371643]}}, {"type": "Feature", "properties": {"norad_id": 66839, "name": "STARLINK-35717", "group": "last-30-days", "lat": 0.8822437533153568, "lon": 177.7160497067885, "alt_km": 411.95140245163657, "timestamp": "2025-12-20T09:36:00.353673+00:00", "meta": {"OBJECT_NAME": "STARLINK-35717", "OBJECT_ID": "2025-280U", "EPOCH": "2025-12-20T04:00:00.999072", "MEAN_MOTION": 15.52519207, "ECCENTRICITY": 0.000298, "INCLINATION": 69.9994, "RA_OF_ASC_NODE": 178.0335, "ARG_OF_PERICENTER": 265.3544, "MEAN_ANOMALY": 231.9836, "EPHEMERIS_TYPE": 0, "CLASSIFICATION_TYPE": "U", "NORAD_CAT_ID": 66839, "ELEMENT_SET_NO": 999, "REV_AT_EPOCH": 409, "BSTAR": 2.5838e-05, "MEAN_MOTION_DOT": 1.422e-05, "MEAN_MOTION_DDOT": 0}, "tle": {"line1": "1 66839U 25280U   25354.16667823  .00001422  00000+0  25838-4 0  9995", "line2": "2 66839  69.9994 178.0335 0002980 265.3544 231.9836 15.52519207  4097"}}, "geometry": {"type": "Point", "coordinates": [177.7160497067885, 0.8822437533153568]}}, {"type": "Feature", "properties": {"norad_id": 66840, "name": "STARLINK-35837", "group": "last-30-days", "lat": 4.4869333571432435, "lon": 179.02948848346142, "alt_km": 411.53723417084984, "timestamp": "2025-12-20T09:36:00.353683+00:00", "meta": {"OBJECT_NAME": "STARLINK-35837", "OBJECT_ID": "2025-280V", "EPOCH": "2025-12-20T04:00:00.999072", "MEAN_MOTION": 15.5251376, "ECCENTRICITY": 0.000291, "INCLINATION": 69.9993, "RA_OF_ASC_NODE": 178.0304, "ARG_OF_PERICENTER": 267.1243, "MEAN_ANOMALY": 234.0541, "EPHEMERIS_TYPE": 0, "CLASSIFICATION_TYPE": "U", "NORAD_CAT_ID": 66840, "ELEMENT_SET_NO": 999, "REV_AT_EPOCH": 409, "BSTAR": 0.00010245, "MEAN_MOTION_DOT": 6.139e-05, "MEAN_MOTION_DDOT": 0}, "tle": {"line1": "1 66840U 25280V   25354.16667823  .00006139  00000+0  10245-3 0  9992", "line2": "2 66840  69.9993 178.0304 0002910 267.1243 234.0541 15.52513760  4098"}}, "geometry": {"type": "Point", "coordinates": [179.02948848346142, 4.4869333571432435]}}, {"type": "Feature", "properties": {"norad_id": 66841, "name": "STARLINK-35715", "group": "last-30-days", "lat": 6.2906780620769736, "lon": 179.6908915248292, "alt_km": 411.3677607031477, "timestamp": "2025-12-20T09:36:00.353693+00:00", "meta": {"OBJECT_NAME": "STARLINK-35715", "OBJECT_ID": "2025-280W", "EPOCH": "2025-12-20T04:00:00.999072", "MEAN_MOTION": 15.52516111, "ECCENTRICITY": 0.0002973, "INCLINATION": 69.9993, "RA_OF_ASC_NODE": 178.0285, "ARG_OF_PERICENTER": 266.9695, "MEAN_ANOMALY": 236.1282, "EPHEMERIS_TYPE": 0, "CLASSIFICATION_TYPE": "U", "NORAD_CAT_ID": 66841, "ELEMENT_SET_NO": 999, "REV_AT_EPOCH": 409, "BSTAR": -4.5157e-05, "MEAN_MOTION_DOT": -2.944e-05, "MEAN_MOTION_DDOT": 0}, "tle": {"line1": "1 66841U 25280W   25354.16667823 -.00002944  00000+0 -45157-4 0  9996", "line2": "2 66841  69.9993 178.0285 0002973 266.9695 236.1282 15.52516111  4092"}}, "geometry": {"type": "Point", "coordinates": [179.6908915248292, 6.2906780620769736]}}, {"type": "Feature", "properties": {"norad_id": 66842, "name": "STARLINK-35769", "group": "last-30-days", "lat": 8.096385468613931, "lon": -179.64202658610688, "alt_km": 411.15655990100913, "timestamp": "2025-12-20T09:36:00.353705+00:00", "meta": {"OBJECT_NAME": "STARLINK-35769", "OBJECT_ID": "2025-280X", "EPOCH": "2025-12-20T04:00:00.999072", "MEAN_MOTION": 15.52515356, "ECCENTRICITY": 0.0002975, "INCLINATION": 69.9992, "RA_OF_ASC_NODE": 178.0266, "ARG_OF_PERICENTER": 267.7358, "MEAN_ANOMALY": 237.2863, "EPHEMERIS_TYPE": 0, "CLASSIFICATION_TYPE": "U", "NORAD_CAT_ID": 66842, "ELEMENT_SET_NO": 999, "REV_AT_EPOCH": 409, "BSTAR": -0.00010998, "MEAN_MOTION_DOT": -6.926e-05, "MEAN_MOTION_DDOT": 0}, "tle": {"line1": "1 66842U 25280X   25354.16667823 -.00006926  00000+0 -10998-3 0  9995", "line2": "2 66842  69.9992 178.0266 0002975 267.7358 237.2863 15.52515356  4095"}}, "geometry": {"type": "Point", "coordinates": [-179.64202658610688, 8.096385468613931]}}, {"type": "Feature", "properties": {"norad_id": 66843, "name": "STARLINK-35997", "group": "last-30-days", "lat": 11.674752028699643, "lon": -178.30245293384792, "alt_km": 410.70253963649793, "timestamp": "2025-12-20T09:36:00.353717+00:00", "meta": {"OBJECT_NAME": "STARLINK-35997", "OBJECT_ID": "2025-280Y", "EPOCH": "2025-12-20T04:00:00.999072", "MEAN_MOTION": 15.52520492, "ECCENTRICITY": 0.0002868, "INCLINATION": 69.9994, "RA_OF_ASC_NODE": 178.02, "ARG_OF_PERICENTER": 267.9584, "MEAN_ANOMALY": 240.8729, "EPHEMERIS_TYPE": 0, "CLASSIFICATION_TYPE": "U", "NORAD_CAT_ID": 66843, "ELEMENT_SET_NO": 999, "REV_AT_EPOCH": 409, "BSTAR": 6.5083e-05, "MEAN_MOTION_DOT": 3.839e-05, "MEAN_MOTION_DDOT": 0}, "tle": {"line1": "1 66843U 25280Y   25354.16667823  .00003839  00000+0  65083-4 0  9990", "line2": "2 66843  69.9994 178.0200 0002868 267.9584 240.8729 15.52520492  4098"}}, "geometry": {"type": "Point", "coordinates": [-178.30245293384792, 11.674752028699643]}}, {"type": "Feature", "properties": {"norad_id": 66844, "name": "STARLINK-36073", "group": "last-30-days", "lat": 9.835493754185855, "lon": -178.99478743219356, "alt_km": 410.9905994096516, "timestamp": "2025-12-20T09:36:00.353728+00:00", "meta": {"OBJECT_NAME": "STARLINK-36073", "OBJECT_ID": "2025-280Z", "EPOCH": "2025-12-20T04:00:00.999072", "MEAN_MOTION": 15.52510318, "ECCENTRICITY": 0.0003098, "INCLINATION": 69.9994, "RA_OF_ASC_NODE": 178.0235, "ARG_OF_PERICENTER": 268.1726, "MEAN_ANOMALY": 238.7064, "EPHEMERIS_TYPE": 0, "CLASSIFICATION_TYPE": "U", "NORAD_CAT_ID": 66844, "ELEMENT_SET_NO": 999, "REV_AT_EPOCH": 409, "BSTAR": -0.00018708, "MEAN_MOTION_DOT": -0.00011656, "MEAN_MOTION_DDOT": 0}, "tle": {"line1": "1 66844U 25280Z   25354.16667823 -.00011656  00000+0 -18708-3 0  9990", "line2": "2 66844  69.9994 178.0235 0003098 268.1726 238.7064 15.52510318  4098"}}, "geometry": {"type": "Point", "coordinates": [-178.99478743219356, 9.835493754185855]}}, {"type": "Feature", "properties": {"norad_id": 66845, "name": "STARLINK-36068", "group": "last-30-days", "lat": 17.068309047835356, "lon": -176.20379854243856, "alt_km": 410.12327571031074, "timestamp": "2025-12-20T09:36:00.353740+00:00", "meta": {"OBJECT_NAME": "STARLINK-36068", "OBJECT_ID": "2025-280AA", "EPOCH": "2025-12-20T04:00:00.999072", "MEAN_MOTION": 15.52515046, "ECCENTRICITY": 0.0003088, "INCLINATION": 69.9994, "RA_OF_ASC_NODE": 178.0139, "ARG_OF_PERICENTER": 268.3467, "MEAN_ANOMALY": 246.2503, "EPHEMERIS_TYPE": 0, "CLASSIFICATION_TYPE": "U", "NORAD_CAT_ID": 66845, "ELEMENT_SET_NO": 999, "REV_AT_EPOCH": 409, "BSTAR": -2.0345e-05, "MEAN_MOTION_DOT": -1.419e-05, "MEAN_MOTION_DDOT": 0}, "tle": {"line1": "1 66845U 25280AA  25354.16667823 -.00001419  00000+0 -20345-4 0  9998", "line2": "2 66845  69.9994 178.0139 0003088 268.3467 246.2503 15.52515046  4090"}}, "geometry": {"type": "Point", "coordinates": [-176.20379854243856, 17.068309047835356]}}, {"type": "Feature", "properties": {"norad_id": 66846, "name": "STARLINK-36055", "group": "last-30-days", "lat": 13.489781386792501, "lon": -177.60716841104139, "alt_km": 410.5511011505423, "timestamp": "2025-12-20T09:36:00.353752+00:00", "meta": {"OBJECT_NAME": "STARLINK-36055", "OBJECT_ID": "2025-280AB", "EPOCH": "2025-12-20T04:00:00.999072", "MEAN_MOTION": 15.52515582, "ECCENTRICITY": 0.0003077, "INCLINATION": 69.9996, "RA_OF_ASC_NODE": 178.0189, "ARG_OF_PERICENTER": 268.3016, "MEAN_ANOMALY": 242.4709, "EPHEMERIS_TYPE": 0, "CLASSIFICATION_TYPE": "U", "NORAD_CAT_ID": 66846, "ELEMENT_SET_NO": 999, "REV_AT_EPOCH": 409, "BSTAR": -0.00012862, "MEAN_MOTION_DOT": -8.071e-05, "MEAN_MOTION_DDOT": 0}, "tle": {"line1": "1 66846U 25280AB  25354.16667823 -.00008071  00000+0 -12862-3 0  9994", "line2": "2 66846  69.9996 178.0189 0003077 268.3016 242.4709 15.52515582  4097"}}, "geometry": {"type": "Point", "coordinates": [-177.60716841104139, 13.489781386792501]}}, {"type": "Feature", "properties": {"norad_id": 66847, "name": "STARLINK-36061", "group": "last-30-days", "lat": 15.282637527194604, "lon": -176.91008797992401, "alt_km": 410.29493907792676, "timestamp": "2025-12-20T09:36:00.353762+00:00", "meta": {"OBJECT_NAME": "STARLINK-36061", "OBJECT_ID": "2025-280AC", "EPOCH": "2025-12-20T04:00:00.999072", "MEAN_MOTION": 15.52515694, "ECCENTRICITY": 0.0003038, "INCLINATION": 69.9994, "RA_OF_ASC_NODE": 178.0168, "ARG_OF_PERICENTER": 269.391, "MEAN_ANOMALY": 243.2969, "EPHEMERIS_TYPE": 0, "CLASSIFICATION_TYPE": "U", "NORAD_CAT_ID": 66847, "ELEMENT_SET_NO": 999, "REV_AT_EPOCH": 404, "BSTAR": -0.00011449, "MEAN_MOTION_DOT": -7.203e-05, "MEAN_MOTION_DDOT": 0}, "tle": {"line1": "1 66847U 25280AC  25354.16667823 -.00007203  00000+0 -11449-3 0  9991", "line2": "2 66847  69.9994 178.0168 0003038 269.3910 243.2969 15.52515694  4040"}}, "geometry": {"type": "Point", "coordinates": [-176.91008797992401, 15.282637527194604]}}]}